{"type": "FeatureCollection", "features": [ {"type": "Feature", "properties": {"norad_id": 66799, "name": "STARLINK-36044", "group": "last-30-days", "lat": 8.418414368717288, "lon": -163.49644808614892, "alt_km": 414.2707392418206, "timestamp": "2025-12-23T11:34:46.946829+00:00", "meta": {"OBJECT_NAME": "STARLINK-36044", "OBJECT_ID": "2025-278J", "EPOCH": "2025-12-23T04:00:01.998720", "MEAN_MOTION": 15.50523893, "ECCENTRICITY": 0.0001624, "INCLINATION": 42.9997, "RA_OF_ASC_NODE": 189.2126, "ARG_OF_PERICENTER": 248.6004, "MEAN_ANOMALY": 158.9849, "EPHEMERIS_TYPE": 0, "CLASSIFICATION_TYPE": "U", "NORAD_CAT_ID": 66799, "ELEMENT_SET_NO": 999, "REV_AT_EPOCH": 463, "BSTAR": 0.001007, "MEAN_MOTION_DOT": 0.00059063, "MEAN_MOTION_DDOT": 0}, "tle": {"line1": "1 66799U 25278J   25357.16668980  .00059063  00000+0  10070-2 0  9999", "line2": "2 66799  42.9997 189.2126 0001624 248.6004 158.9849 15.50523893  4633"}}, "geometry": {"type": "Point", "coordinates": [-163.49644808614892, 8.418414368717288]}}, {"type": "Feature", "properties": {"norad_id": 66800, "name": "STARLINK-35996", "group": "last-30-days", "lat": 11.005958771777314, "lon": -160.5985325062271, "alt_km": 413.69517155484664, "timestamp": "2025-12-23T11:34:46.946838+00:00", "meta": {"OBJECT_NAME": "STARLINK-35996", "OBJECT_ID": "2025-278K", "EPOCH": "2025-12-23T04:00:01.998720", "MEAN_MOTION": 15.50597807, "ECCENTRICITY": 0.0001761, "INCLINATION": 42.9996, "RA_OF_ASC_NODE": 189.202, "ARG_OF_PERICENTER": 267.8702, "MEAN_ANOMALY": 143.5368, "EPHEMERIS_TYPE": 0, "CLASSIFICATION_TYPE": "U", "NORAD_CAT_ID": 66800, "ELEMENT_SET_NO": 999, "REV_AT_EPOCH": 442, "BSTAR": -0.0013518, "MEAN_MOTION_DOT": -0.00078904, "MEAN_MOTION_DDOT": 0}, "tle": {"line1": "1 66800U 25278K   25357.16668980 -.00078904  00000+0 -13518-2 0  9999", "line2": "2 66800  42.9996 189.2020 0001761 267.8702 143.5368 15.50597807  4427"}}, "geometry": {"type": "Point", "coordinates": [-160.5985325062271, 11.005958771777314]}}, {"type": "Feature", "properties": {"norad_id": 66801, "name": "STARLINK-36080", "group": "last-30-days", "lat": 17.28005576675642, "lon": -153.16824058072234, "alt_km": 413.156199196892, "timestamp": "2025-12-23T11:34:46.946847+00:00", "meta": {"OBJECT_NAME": "STARLINK-36080", "OBJECT_ID": "2025-278L", "EPOCH": "2025-12-23T04:00:01.998720", "MEAN_MOTION": 15.50515827, "ECCENTRICITY": 0.0002207, "INCLINATION": 42.9995, "RA_OF_ASC_NODE": 189.1772, "ARG_OF_PERICENTER": 262.3125, "MEAN_ANOMALY": 158.6991, "EPHEMERIS_TYPE": 0, "CLASSIFICATION_TYPE": "U", "NORAD_CAT_ID": 66801, "ELEMENT_SET_NO": 999, "REV_AT_EPOCH": 463, "BSTAR": 0.00098942, "MEAN_MOTION_DOT": 0.00058005, "MEAN_MOTION_DDOT": 0}, "tle": {"line1": "1 66801U 25278L   25357.16668980  .00058005  00000+0  98942-3 0  9993", "line2": "2 66801  42.9995 189.1772 0002207 262.3125 158.6991 15.50515827  4639"}}, "geometry": {"type": "Point", "coordinates": [-153.16824058072234, 17.28005576675642]}}, {"type": "Feature", "properties": {"norad_id": 66802, "name": "STARLINK-35604", "group": "last-30-days", "lat": 9.714667413889428, "lon": -162.05398610992708, "alt_km": 413.98702938356837, "timestamp": "2025-12-23T11:34:46.946857+00:00", "meta": {"OBJECT_NAME": "STARLINK-35604", "OBJECT_ID": "2025-278M", "EPOCH": "2025-12-23T04:00:01.998720", "MEAN_MOTION": 15.50527689, "ECCENTRICITY": 0.0002085, "INCLINATION": 42.9995, "RA_OF_ASC_NODE": 189.207, "ARG_OF_PERICENTER": 262.5076, "MEAN_ANOMALY": 146.9991, "EPHEMERIS_TYPE": 0, "CLASSIFICATION_TYPE": "U", "NORAD_CAT_ID": 66802, "ELEMENT_SET_NO": 999, "REV_AT_EPOCH": 463, "BSTAR": 0.00085321, "MEAN_MOTION_DOT": 0.00049942, "MEAN_MOTION_DDOT": 0}, "tle": {"line1": "1 66802U 25278M   25357.16668980  .00049942  00000+0  85321-3 0  9991", "line2": "2 66802  42.9995 189.2070 0002085 262.5076 146.9991 15.50527689  4632"}}, "geometry": {"type": "Point", "coordinates": [-162.05398610992708, 9.714667413889428]}}, {"type": "Feature", "properties": {"norad_id": 66803, "name": "STARLINK-35565", "group": "last-30-days", "lat": 12.265297264287266, "lon": -159.15821878442924, "alt_km": 413.86412005930015, "timestamp": "2025-12-23T11:34:46.946866+00:00", "meta": {"OBJECT_NAME": "STARLINK-35565", "OBJECT_ID": "2025-278N", "EPOCH": "2025-12-23T04:00:01.998720", "MEAN_MOTION": 15.50511466, "ECCENTRICITY": 0.0002144, "INCLINATION": 42.9998, "RA_OF_ASC_NODE": 189.1977, "ARG_OF_PERICENTER": 255.9936, "MEAN_ANOMALY": 157.3492, "EPHEMERIS_TYPE": 0, "CLASSIFICATION_TYPE": "U", "NORAD_CAT_ID": 66803, "ELEMENT_SET_NO": 999, "REV_AT_EPOCH": 472, "BSTAR": 0.0012094, "MEAN_MOTION_DOT": 0.00071085, "MEAN_MOTION_DDOT": 0}, "tle": {"line1": "1 66803U 25278N   25357.16668980  .00071085  00000+0  12094-2 0  9991", "line2": "2 66803  42.9998 189.1977 0002144 255.9936 157.3492 15.50511466  4726"}}, "geometry": {"type": "Point", "coordinates": [-159.15821878442924, 12.265297264287266]}}, {"type": "Feature", "properties": {"norad_id": 66804, "name": "STARLINK-36038", "group": "last-30-days", "lat": 13.578766644063826, "lon": -157.63248624199227, "alt_km": 413.09397582843394, "timestamp": "2025-12-23T11:34:46.946877+00:00", "meta": {"OBJECT_NAME": "STARLINK-36038", "OBJECT_ID": "2025-278P", "EPOCH": "2025-12-23T04:00:01.998720", "MEAN_MOTION": 15.50596846, "ECCENTRICITY": 0.0001677, "INCLINATION": 42.9994, "RA_OF_ASC_NODE": 189.1923, "ARG_OF_PERICENTER": 284.103, "MEAN_ANOMALY": 131.1937, "EPHEMERIS_TYPE": 0, "CLASSIFICATION_TYPE": "U", "NORAD_CAT_ID": 66804, "ELEMENT_SET_NO": 999, "REV_AT_EPOCH": 463, "BSTAR": -0.0017536, "MEAN_MOTION_DOT": -0.00101958, "MEAN_MOTION_DDOT": 0}, "tle": {"line1": "1 66804U 25278P   25357.16668980 -.00101958  00000+0 -17536-2 0  9993", "line2": "2 66804  42.9994 189.1923 0001677 284.1030 131.1937 15.50596846  4632"}}, "geometry": {"type": "Point", "coordinates": [-157.63248624199227, 13.578766644063826]}}, {"type": "Feature", "properties": {"norad_id": 66805, "name": "STARLINK-36049", "group": "last-30-days", "lat": 16.04433907245727, "lon": -154.6891531384337, "alt_km": 413.3755028737223, "timestamp": "2025-12-23T11:34:46.946886+00:00", "meta": {"OBJECT_NAME": "STARLINK-36049", "OBJECT_ID": "2025-278Q", "EPOCH": "2025-12-23T04:00:01.998720", "MEAN_MOTION": 15.50518527, "ECCENTRICITY": 0.0002206, "INCLINATION": 42.9995, "RA_OF_ASC_NODE": 189.1822, "ARG_OF_PERICENTER": 258.9161, "MEAN_ANOMALY": 160.1804, "EPHEMERIS_TYPE": 0, "CLASSIFICATION_TYPE": "U", "NORAD_CAT_ID": 66805, "ELEMENT_SET_NO": 999, "REV_AT_EPOCH": 463, "BSTAR": 0.00097052, "MEAN_MOTION_DOT": 0.00056888, "MEAN_MOTION_DDOT": 0}, "tle": {"line1": "1 66805U 25278Q   25357.16668980  .00056888  00000+0  97052-3 0  9995", "line2": "2 66805  42.9995 189.1822 0002206 258.9161 160.1804 15.50518527  4630"}}, "geometry": {"type": "Point", "coordinates": [-154.6891531384337, 16.04433907245727]}}, {"type": "Feature", "properties": {"norad_id": 66806, "name": "STARLINK-36069", "group": "last-30-days", "lat": 14.794313314015488, "lon": -156.1953296379378, "alt_km": 413.4814922884116, "timestamp": "2025-12-23T11:34:46.946895+00:00", "meta": {"OBJECT_NAME": "STARLINK-36069", "OBJECT_ID": "2025-278R", "EPOCH": "2025-12-23T04:00:01.998720", "MEAN_MOTION": 15.5051656, "ECCENTRICITY": 0.0002202, "INCLINATION": 42.9995, "RA_OF_ASC_NODE": 189.1874, "ARG_OF_PERICENTER": 261.0266, "MEAN_ANOMALY": 156.1525, "EPHEMERIS_TYPE": 0, "CLASSIFICATION_TYPE": "U", "NORAD_CAT_ID": 66806, "ELEMENT_SET_NO": 999, "REV_AT_EPOCH": 442, "BSTAR": 0.0009871, "MEAN_MOTION_DOT": 0.00057869, "MEAN_MOTION_DDOT": 0}, "tle": {"line1": "1 66806U 25278R   25357.16668980  .00057869  00000+0  98710-3 0  9998", "line2": "2 66806  42.9995 189.1874 0002202 261.0266 156.1525 15.50516560  4422"}}, "geometry": {"type": "Point", "coordinates": [-156.1953296379378, 14.794313314015488]}}, {"type": "Feature", "properties": {"norad_id": 66807, "name": "STARLINK-36000", "group": "last-30-days", "lat": 18.52217345926431, "lon": -151.60310215521497, "alt_km": 412.8157432570506, "timestamp": "2025-12-23T11:34:46.946904+00:00", "meta": {"OBJECT_NAME": "STARLINK-36000", "OBJECT_ID": "2025-278S", "EPOCH": "2025-12-23T04:00:01.998720", "MEAN_MOTION": 15.50601165, "ECCENTRICITY": 0.0001646, "INCLINATION": 42.9995, "RA_OF_ASC_NODE": 189.1729, "ARG_OF_PERICENTER": 262.9855, "MEAN_ANOMALY": 159.928, "EPHEMERIS_TYPE": 0, "CLASSIFICATION_TYPE": "U", "NORAD_CAT_ID": 66807, "ELEMENT_SET_NO": 999, "REV_AT_EPOCH": 469, "BSTAR": -0.0015022, "MEAN_MOTION_DOT": -0.00087558, "MEAN_MOTION_DDOT": 0}, "tle": {"line1": "1 66807U 25278S   25357.16668980 -.00087558  00000+0 -15022-2 0  9993", "line2": "2 66807  42.9995 189.1729 0001646 262.9855 159.9280 15.50601165  4691"}}, "geometry": {"type": "Point", "coordinates": [-151.60310215521497, 18.52217345926431]}}, {"type": "Feature", "properties": {"norad_id": 66808, "name": "STARLINK-36071", "group": "last-30-days", "lat": 19.734681782339813, "lon": -150.0372910246917, "alt_km": 412.61939433301814, "timestamp": "2025-12-23T11:34:46.946914+00:00", "meta": {"OBJECT_NAME": "STARLINK-36071", "OBJECT_ID": "2025-278T", "EPOCH": "2025-12-23T04:00:01.998720", "MEAN_MOTION": 15.50599918, "ECCENTRICITY": 0.0001681, "INCLINATION": 42.9997, "RA_OF_ASC_NODE": 189.1681, "ARG_OF_PERICENTER": 265.6847, "MEAN_ANOMALY": 159.1431, "EPHEMERIS_TYPE": 0, "CLASSIFICATION_TYPE": "U", "NORAD_CAT_ID": 66808, "ELEMENT_SET_NO": 999, "REV_AT_EPOCH": 463, "BSTAR": -0.0014356, "MEAN_MOTION_DOT": -0.00083733, "MEAN_MOTION_DDOT": 0}, "tle": {"line1": "1 66808U 25278T   25357.16668980 -.00083733  00000+0 -14356-2 0  9994", "line2": "2 66808  42.9997 189.1681 0001681 265.6847 159.1431 15.50599918  4637"}}, "geometry": {"type": "Point", "coordinates": [-150.0372910246917, 19.734681782339813]}}]}